GLOBALSTAR M057         
1 25943U 99058A   26025.57201697 -.00000073  00000+0  18146-3 0  9999
2 25943  51.9988  77.0712 0002871 114.1090 246.0060 12.24831895194187
GLOBALSTAR M059         
1 25944U 99058B   26025.81792992 -.00000025  00000+0  75873-3 0  9997
2 25944  52.0050 324.8797 0000874  50.7434 335.8514 11.99991213600774
GLOBALSTAR M056         
1 25945U 99058C   26025.75749025 -.00000070  00000+0  20134-3 0  9990
2 25945  51.9988 321.2985 0000616 291.6355  82.0669 12.04783411189450
GLOBALSTAR M031         
1 25946U 99058D   26025.49851346 -.00000151  00000+0 -61825-3 0  9995
2 25946  51.9936 201.0152 0000196 265.6078 128.6715 12.16048443191590
GLOBALSTAR M039         
1 25961U 99062A   26025.81846360 -.00000095  00000+0  51855-4 0  9992
2 25961  51.9868 310.6171 0002964 110.0138 250.1047 12.62340410208334
GLOBALSTAR M034         
1 25962U 99062B   26025.77076979 -.00000060  00000+0  33501-3 0  9998
2 25962  51.9857 152.7934 0015213 102.9665  45.6028 11.79455498164653
GLOBALSTAR M029         
1 25963U 99062C   26025.75583552 -.00000064  00000+0  27553-3 0  9991
2 25963  51.9771 212.8918 0002486 165.2283 207.2320 11.99907839195844
GLOBALSTAR M061         
1 25964U 99062D   26025.82572088 -.00000107  00000+0 -43213-3 0  9992
2 25964  51.9825 339.6435 0006349  25.0248 353.3808 11.76777372147396
